{
  "norad_id": 32791,
  "name": "SEEDS II (CO-66)",
  "history": [
    {
      "epoch": "2026-04-13T06:14:46.824288Z",
      "apogee_km": 476.8272827958799,
      "perigee_km": 471.35112065998237,
      "latitude_deg": 1.1185173064515127e-05,
      "longitude_deg": 163.02730009621624,
      "height_km": 479.33029130518634,
      "semi_major_axis_km": 6852.226201727931,
      "eccentricity": 0.00039959,
      "inclination_deg": 97.7527,
      "raan_deg": 98.176,
      "arg_perigee_deg": 141.749,
      "mean_anomaly_deg": 218.4034,
      "mean_motion_rev_day": 15.30577149
    },
    {
      "epoch": "2026-04-14T10:29:19.722048Z",
      "apogee_km": 476.84389656974963,
      "perigee_km": 471.1894993381975,
      "latitude_deg": -3.13494350734781e-05,
      "longitude_deg": 99.45905585589122,
      "height_km": 479.2371729178026,
      "semi_major_axis_km": 6852.153697953973,
      "eccentricity": 0.0004126,
      "inclination_deg": 97.7523,
      "raan_deg": 99.4047,
      "arg_perigee_deg": 138.8857,
      "mean_anomaly_deg": 221.2694,
      "mean_motion_rev_day": 15.30601442
    },
    {
      "epoch": "2026-04-15T17:52:07.862016Z",
      "apogee_km": 476.84542246276123,
      "perigee_km": 471.03623088130917,
      "latitude_deg": -1.7089021199355356e-05,
      "longitude_deg": -11.16475933853962,
      "height_km": 479.12423359624785,
      "semi_major_axis_km": 6852.077826672035,
      "eccentricity": 0.0004239,
      "inclination_deg": 97.7524,
      "raan_deg": 100.7702,
      "arg_perigee_deg": 136.1123,
      "mean_anomaly_deg": 224.0454,
      "mean_motion_rev_day": 15.30626864
    },
    {
      "epoch": "2026-04-16T17:24:12.745728Z",
      "apogee_km": 476.8392250559491,
      "perigee_km": 470.9190830988273,
      "latitude_deg": -3.4864004984304157e-06,
      "longitude_deg": -4.127443468317811,
      "height_km": 479.0219884662141,
      "semi_major_axis_km": 6852.016154077388,
      "eccentricity": 0.000432,
      "inclination_deg": 97.7525,
      "raan_deg": 101.7944,
      "arg_perigee_deg": 133.9152,
      "mean_anomaly_deg": 226.2445,
      "mean_motion_rev_day": 15.30647529
    },
    {
      "epoch": "2026-04-17T21:38:41.172288Z",
      "apogee_km": 476.8112613690537,
      "perigee_km": 470.79512084245835,
      "latitude_deg": 8.254931704889948e-05,
      "longitude_deg": -67.67662364009703,
      "height_km": 478.88603123176324,
      "semi_major_axis_km": 6851.940191105756,
      "eccentricity": 0.00043901,
      "inclination_deg": 97.7526,
      "raan_deg": 103.0235,
      "arg_perigee_deg": 131.5055,
      "mean_anomaly_deg": 228.6563,
      "mean_motion_rev_day": 15.30672983
    },
    {
      "epoch": "2026-04-18T05:29:22.069824Z",
      "apogee_km": 476.81056665343294,
      "perigee_km": 470.7568946878846,
      "latitude_deg": 3.650572351642659e-05,
      "longitude_deg": 174.67230618034424,
      "height_km": 478.8507848213064,
      "semi_major_axis_km": 6851.9207306706585,
      "eccentricity": 0.00044175,
      "inclination_deg": 97.7527,
      "raan_deg": 103.365,
      "arg_perigee_deg": 130.7985,
      "mean_anomaly_deg": 229.3639,
      "mean_motion_rev_day": 15.30679504
    },
    {
      "epoch": "2026-04-19T17:34:27.892128Z",
      "apogee_km": 476.7492100884647,
      "perigee_km": 470.5236887323308,
      "latitude_deg": -1.2334189358450785e-05,
      "longitude_deg": -6.513203998120291,
      "height_km": 478.6382571334456,
      "semi_major_axis_km": 6851.773449410398,
      "eccentricity": 0.0004543,
      "inclination_deg": 97.7534,
      "raan_deg": 104.9357,
      "arg_perigee_deg": 127.9186,
      "mean_anomaly_deg": 232.2465,
      "mean_motion_rev_day": 15.30728858
    },
    {
      "epoch": "2026-04-20T10:49:55.388064Z",
      "apogee_km": 476.7503126706133,
      "perigee_km": 470.4315121552272,
      "latitude_deg": -4.672455731976942e-06,
      "longitude_deg": 94.66468123109257,
      "height_km": 478.54369606292255,
      "semi_major_axis_km": 6851.72791241292,
      "eccentricity": 0.00046111,
      "inclination_deg": 97.7535,
      "raan_deg": 105.6869,
      "arg_perigee_deg": 126.1597,
      "mean_anomaly_deg": 234.007,
      "mean_motion_rev_day": 15.30744118
    },
    {
      "epoch": "2026-04-21T05:39:29.799648Z",
      "apogee_km": 476.7033178031852,
      "perigee_km": 470.30498123211873,
      "latitude_deg": 1.824355495599155e-05,
      "longitude_deg": 172.31762909191167,
      "height_km": 478.4182088716956,
      "semi_major_axis_km": 6851.641149517652,
      "eccentricity": 0.00046692,
      "inclination_deg": 97.7537,
      "raan_deg": 106.5064,
      "arg_perigee_deg": 124.7964,
      "mean_anomaly_deg": 235.3716,
      "mean_motion_rev_day": 15.30773194
    },
    {
      "epoch": "2026-04-22T11:27:57.124800Z",
      "apogee_km": 476.6519783381291,
      "perigee_km": 470.1546626522031,
      "latitude_deg": 5.333953918413956e-05,
      "longitude_deg": 85.2771121415292,
      "height_km": 478.22952637959804,
      "semi_major_axis_km": 6851.540320495165,
      "eccentricity": 0.00047415,
      "inclination_deg": 97.7539,
      "raan_deg": 107.8039,
      "arg_perigee_deg": 122.3458,
      "mean_anomaly_deg": 237.8242,
      "mean_motion_rev_day": 15.30806985
    },
    {
      "epoch": "2026-04-22T22:26:50.769312Z",
      "apogee_km": 476.62926704840356,
      "perigee_km": 470.09019856661325,
      "latitude_deg": 8.71976708677029e-06,
      "longitude_deg": -79.41939869731534,
      "height_km": 478.1538123335907,
      "semi_major_axis_km": 6851.496732807508,
      "eccentricity": 0.0004772,
      "inclination_deg": 97.7539,
      "raan_deg": 108.2819,
      "arg_perigee_deg": 121.4544,
      "mean_anomaly_deg": 238.7163,
      "mean_motion_rev_day": 15.30821593
    },
    {
      "epoch": "2026-04-24T16:48:14.402016Z",
      "apogee_km": 476.5578174712409,
      "perigee_km": 469.8462457558726,
      "latitude_deg": -6.634260053105328e-05,
      "longitude_deg": 5.336317002826129,
      "height_km": 477.8574596280957,
      "semi_major_axis_km": 6851.3390316135565,
      "eccentricity": 0.0004898,
      "inclination_deg": 97.7536,
      "raan_deg": 110.1256,
      "arg_perigee_deg": 117.8547,
      "mean_anomaly_deg": 242.3189,
      "mean_motion_rev_day": 15.30874447
    },
    {
      "epoch": "2026-04-25T11:37:43.017024Z",
      "apogee_km": 476.48457805675207,
      "perigee_km": 469.7374690031811,
      "latitude_deg": 2.1372752868662603e-05,
      "longitude_deg": 83.01347614880083,
      "height_km": 477.69890674206505,
      "semi_major_axis_km": 6851.248023529966,
      "eccentricity": 0.0004924,
      "inclination_deg": 97.7533,
      "raan_deg": 110.9451,
      "arg_perigee_deg": 116.41,
      "mean_anomaly_deg": 243.7646,
      "mean_motion_rev_day": 15.3090495
    },
    {
      "epoch": "2026-04-26T22:08:21.797664Z",
      "apogee_km": 476.34628925668585,
      "perigee_km": 469.50865287198485,
      "latitude_deg": 1.3971563417371355e-05,
      "longitude_deg": -74.56331542705277,
      "height_km": 477.3910917284742,
      "semi_major_axis_km": 6851.0644710643355,
      "eccentricity": 0.00049902,
      "inclination_deg": 97.7528,
      "raan_deg": 112.4472,
      "arg_perigee_deg": 113.7428,
      "mean_anomaly_deg": 246.4336,
      "mean_motion_rev_day": 15.30966474
    },
    {
      "epoch": "2026-04-27T10:41:18.252096Z",
      "apogee_km": 476.29217572165453,
      "perigee_km": 469.4288464150659,
      "latitude_deg": -9.828354917822394e-06,
      "longitude_deg": 97.23239166617336,
      "height_km": 477.28396690036334,
      "semi_major_axis_km": 6850.99751106836,
      "eccentricity": 0.0005009,
      "inclination_deg": 97.7526,
      "raan_deg": 112.9935,
      "arg_perigee_deg": 112.9196,
      "mean_anomaly_deg": 247.2573,
      "mean_motion_rev_day": 15.30988919
    },
    {
      "epoch": "2026-04-28T10:13:02.436960Z",
      "apogee_km": 476.2016480984621,
      "perigee_km": 469.286368808529,
      "latitude_deg": -8.809401536927385e-05,
      "longitude_deg": 104.35630017957666,
      "height_km": 477.15244563583207,
      "semi_major_axis_km": 6850.881008453495,
      "eccentricity": 0.0005047,
      "inclination_deg": 97.7522,
      "raan_deg": 114.0178,
      "arg_perigee_deg": 112.4687,
      "mean_anomaly_deg": 247.7087,
      "mean_motion_rev_day": 15.31027972
    },
    {
      "epoch": "2026-04-29T12:52:58.186848Z",
      "apogee_km": 476.0914572806878,
      "perigee_km": 469.1609511927527,
      "latitude_deg": 2.76711135253969e-05,
      "longitude_deg": 64.44008125084913,
      "height_km": 476.8877603186891,
      "semi_major_axis_km": 6850.7632042367195,
      "eccentricity": 0.00050582,
      "inclination_deg": 97.7522,
      "raan_deg": 115.179,
      "arg_perigee_deg": 109.8166,
      "mean_anomaly_deg": 250.362,
      "mean_motion_rev_day": 15.31067463
    },
    {
      "epoch": "2026-04-30T10:50:31.579296Z",
      "apogee_km": 476.01620006353005,
      "perigee_km": 469.0212695189648,
      "latitude_deg": 1.8647493466879517e-05,
      "longitude_deg": 95.10531177209711,
      "height_km": 476.7042721629367,
      "semi_major_axis_km": 6850.655734791248,
      "eccentricity": 0.00051053,
      "inclination_deg": 97.7523,
      "raan_deg": 116.1352,
      "arg_perigee_deg": 108.3124,
      "mean_anomaly_deg": 251.8672,
      "mean_motion_rev_day": 15.31103491
    }
  ]
}